ONEWEB-0045             
1 45151U 20008W   24203.87118894  .00000521  00000+0  14341-2 0  9995
2 45151  87.8985 159.4388 0002043  77.8918 282.2439 13.11416854219275
ONEWEB-0049             
1 45154U 20008Z   24203.91078409  .00000649  00000+0  18226-2 0  9997
2 45154  87.8961 174.5459 0002406  95.8700 264.2701 13.10373106216978
ONEWEB-0051             
1 45155U 20008AA  24203.94578934  .00000600  00000+0  16575-2 0  9991
2 45155  87.8985 159.4657 0001879  82.7611 277.3731 13.11417128219960
ONEWEB-0052             
1 45156U 20008AB  24203.90746086  .00000629  00000+0  17655-2 0  9994
2 45156  87.8954 174.5155 0002462  92.8284 267.3125 13.10373141216884
ONEWEB-0053             
1 45157U 20008AC  24203.88919321 -.00000102  00000+0 -32809-3 0  9993
2 45157  87.8960 174.5723 0002329  77.1890 282.9498 13.10376732216856
ONEWEB-0054             
1 45158U 20008AD  24203.92405273  .00000277  00000+0  75824-3 0  9990
2 45158  87.8950 174.5466 0002005  85.0218 275.1138 13.10370044216971
